[{"OBJECT_NAME":"STARLINK-36494","OBJECT_ID":"2026-002AC","EPOCH":"2026-03-09T23:37:36.798816","MEAN_MOTION":15.27602644,"ECCENTRICITY":0.00011543,"INCLINATION":42.9993,"RA_OF_ASC_NODE":323.625,"ARG_OF_PERICENTER":263.8982,"MEAN_ANOMALY":96.1738,"EPHEMERIS_TYPE":0,"CLASSIFICATION_TYPE":"U","NORAD_CAT_ID":67331,"ELEMENT_SET_NO":999,"REV_AT_EPOCH":1128,"BSTAR":0.0012146223,"MEAN_MOTION_DOT":0.00033336,"MEAN_MOTION_DDOT":0},{"OBJECT_NAME":"FENGYUN 1C DEB","OBJECT_ID":"1999-025BQF","EPOCH":"2026-03-08T19:58:36.101856","MEAN_MOTION":15.15826086,"ECCENTRICITY":0.00798835,"INCLINATION":98.9812,"RA_OF_ASC_NODE":89.4872,"ARG_OF_PERICENTER":83.7388,"MEAN_ANOMALY":277.2932,"EPHEMERIS_TYPE":0,"CLASSIFICATION_TYPE":"U","NORAD_CAT_ID":31327,"ELEMENT_SET_NO":999,"REV_AT_EPOCH":1401,"BSTAR":0.0018254058,"MEAN_MOTION_DOT":0.00037915,"MEAN_MOTION_DDOT":0}]
